AIM                     
1 31304U 07015A   21279.72395545  .00002074  00000-0  11553-3 0  9996
2 31304  97.8575 185.1161 0005482 151.1694 208.9840 15.14798770792753
FGRST (GLAST)           
1 33053U 08029A   21279.71498771  .00000850  00000-0  31708-4 0  9994
2 33053  25.5821  96.4540 0012505 120.1705 240.0070 15.11610534735258
WISE                    
1 36119U 09071A   21279.66746946  .00001993  00000-0  68487-4 0  9995
2 36119  97.2741 314.1697 0004093 113.6152 246.5520 15.31264247656644
SDO                     
1 36395U 10005A   21279.52231491 -.00000038  00000-0  00000-0 0  9992
2 36395  31.1656 113.3687 0000285 271.5824  76.8126  1.00273897 42860
CRYOSAT 2               
1 36508U 10013A   21279.90447531  .00000121  00000-0  29314-4 0  9998
2 36508  92.0219 222.6953 0007388  46.4519 313.7301 14.51907111609341
X-SAT                   
1 37389U 11015C   21280.06456856 -.00000023  00000-0  79354-5 0  9990
2 37389  98.3721 320.7506 0013758 339.7162  20.3477 14.24390888544137
GCOM-W1 (SHIZUKU)       
1 38337U 12025A   21279.89981855  .00000127  00000-0  38324-4 0  9992
2 38337  98.2161 219.0171 0000622  56.0231 344.9087 14.57096541499392
NUSTAR                  
1 38358U 12031A   21279.98739913  .00001402  00000-0  72135-4 0  9993
2 38358   6.0271  46.6862 0012300 280.6127  79.2617 14.88633819507116
NEOSSAT                 
1 39089U 13009D   21279.51699809  .00000067  00000-0  38906-4 0  9993
2 39089  98.4358 116.9861 0010550 317.5922  42.4447 14.34587195450809
IRIS                    
1 39197U 13033A   21280.09029450  .00000237  00000-0  39113-4 0  9994
2 39197  97.9681 103.2833 0028632 126.9092 233.4748 14.78907786446542
HISAKI (SPRINT-A)       
1 39253U 13049A   21279.46007575  .00000138  00000-0  98195-4 0  9992
2 39253  29.7201 295.4569 0137145 158.8003 201.8320 13.55251278398624
CASSIOPE                
1 39265U 13055A   21279.90175736  .00008974  00000-0  24804-3 0  9997
2 39265  80.9687 175.0005 0644332 346.5618  11.9071 14.33376151415955
STSAT-3                 
1 39422U 13066G   21279.80502870  .00000708  00000-0  78375-4 0  9996
2 39422  97.4770 293.6943 0023968  50.2849 310.0471 14.90027797428060
SWARM B                 
1 39451U 13067A   21279.90215874  .00000750  00000-0  31188-4 0  9993
2 39451  87.7515 137.3422 0002549 114.6669 245.4842 15.22162536422372
SWARM A                 
1 39452U 13067B   21279.89846793  .00002761  00000-0  55524-4 0  9996
2 39452  87.3580 317.1326 0002613  79.2926 280.8626 15.46109336442758
SWARM C                 
1 39453U 13067C   21279.89843156  .00002776  00000-0  55792-4 0  9990
2 39453  87.3433 317.1201 0002613  79.3084 280.8469 15.46118769442715
BRITE-CA1 (TORONTO)     
1 40020U 14033L   21280.00589148  .00000156  00000-0  34926-4 0  9995
2 40020  97.7527  87.3636 0087031 352.9088   7.0880 14.66776781390617
OCO 2                   
1 40059U 14035A   21279.88877155  .00000106  00000-0  33517-4 0  9991
2 40059  98.2169 219.7523 0001366  90.2866 269.8489 14.57109972386403
BRITE-PL2 (HEWELIUSZ)   
1 40119U 14049B   21279.83345239  .00000308  00000-0  42662-4 0  9996
2 40119  97.8883  13.1546 0017145 356.7235   3.3864 14.84713424386378
RESURS P2               
1 40360U 14087A   21280.15817588  .00001980  00000-0  61404-4 0  9996
2 40360  97.2245   5.3411 0007805 280.6762 166.6717 15.34569031379391
MMS 1                   
1 40482U 15011C   21258.42058084 -.00001860  00000-0  00000+0 0  9990
2 40482  33.5007 114.6989 8436997  37.2833  47.6472  0.28495839 12515
MMS 2                   
1 40483U 15011A   21258.46668899 -.00001857  00000-0  00000+0 0  9992
2 40483  33.5068 114.6905 8434770  37.2948  52.3509  0.28491614 12493
MMS 3                   
1 40484U 15011C   21258.46668899 -.00001860  00000-0  00000+0 0  9997
2 40484  33.4821 114.6504 8437754  37.3586  52.3120  0.28489266 12498
MMS 4                   
1 40485U 15011D   21258.42057985 -.00001860  00000-0  00000+0 0  9992
2 40485  33.5009 114.7085 8435900  37.2916  47.5998  0.28495883 12491
ASTROSAT                
1 40930U 15052A   21280.09885703  .00000898  00000-0  36884-4 0  9990
2 40930   5.9958 184.6474 0008666 174.6582 185.3638 14.76407397325694
DAMPE                   
1 41173U 15078A   21280.19086983  .00000349  00000-0  17242-4 0  9990
2 41173  97.3582 270.2389 0014301  18.7398  41.4307 15.24067679323002
PISAT                   
1 41784U 16059B   21280.14726340  .00000189  00000-0  45194-4 0  9990
2 41784  97.9549 327.8797 0030638 248.9022 110.8905 14.63667650268632
HXMT (HUIYAN)           
1 42758U 17034A   21280.22727828  .00000839  00000-0  65154-4 0  9997
2 42758  43.0180 299.5390 0007065 141.2615 310.3235 15.09347844237902
FLYING LAPTOP           
1 42831U 17042G   21279.80693087  .00000166  00000-0  21830-4 0  9995
2 42831  97.4535 143.5888 0015060 131.0745 229.1765 14.91361834230280
PICSAT                  
1 43132U 18004X   21279.72085929  .00004025  00000-0  15718-3 0  9995
2 43132  97.4013 353.2529 0009269 166.4043 193.7447 15.26435592207655
ZHANGZHENG-1 (CSES)     
1 43194U 18015C   21280.23295373  .00003072  00000-0  14226-3 0  9993
2 43194  97.4928  46.8861 0009680 240.6928 203.4414 15.20831240204133
ICON                    
1 44628U 19068A   21279.38483588  .00000973  00000-0  73913-4 0  9992
2 44628  26.9886 167.8593 0019039 102.9098 257.3587 14.92052982108575
SALSAT                  
1 46495U 20068K   21279.93642653  .00000480  00000-0  39560-4 0  9992
2 46495  97.6995 216.8099 0018771  57.7701 302.5334 15.03579085 56083
ASTRA 1D                
1 23331U 94070A   21279.41577597 -.00000265  00000-0  00000-0 0  9992
2 23331   9.7576  39.3965 0003714 161.0412 251.5571  1.00269872 99091
AMC-1 (GE-1)            
1 24315U 96054A   21279.64214133  .00000068  00000-0  00000-0 0  9998
2 24315   5.0206  75.1956 0003006 119.5722 281.0442  1.00270493 29131
AMC-3 (GE-3)            
1 24936U 97050A   21279.51035469 -.00000258  00000-0  00000-0 0  9995
2 24936   3.9244  81.7595 0002730 112.2598 293.1245  1.00271440 35242
NSS-5                   
1 24957U 97053A   21279.69007809  .00000107  00000-0  00000-0 0  9999
2 24957   6.9276  60.9802 0003418 125.7788 127.7316  1.00273352 87957
ASTRA 1G                
1 25071U 97076A   21279.68452100  .00000118  00000-0  00000-0 0  9991
2 25071   5.6661  70.1212 0003392 119.4271  91.8368  1.00272091 87312
ASTRA 2A                
1 25462U 98050A   21280.03278177  .00000150  00000-0  00000+0 0  9994
2 25462   2.7711  88.2053 0002004  99.7686 227.7016  1.00270578 84553
AMC-4 (GE-4)            
1 25954U 99060A   21280.14212432  .00000087  00000-0  00000+0 0  9995
2 25954   0.8817  94.4946 0002856  99.8603  97.9342  1.00272076 80291
NSS-11 (AAP-1)          
1 26554U 00059A   21279.84692958  .00000024  00000-0  00000-0 0  9994
2 26554   0.0443  64.5698 0002602 130.2920 301.7710  1.00271859 24110
AMC-6 (GE-6)            
1 26580U 00067A   21279.71235194  .00000103  00000-0  00000-0 0  9991
2 26580   0.0443  64.4185 0002632 126.6837 301.9548  1.00270739 76730
ASTRA 2D                
1 26638U 00081A   21277.10348750  .00000123  00000-0  00000-0 0  9997
2 26638   6.7539  61.9555 0005568 170.4935 201.4803  1.00177744 35693
AMC-8 (GE-8)            
1 26639U 00081B   21279.71313691  .00000088  00000-0  00000-0 0  9993
2 26639   1.8107  91.2031 0002652 107.9225 298.2134  1.00271008 76148
ASTRA 2C                
1 26853U 01025A   21280.05896293 -.00000257  00000-0  00000+0 0  9991
2 26853   3.9518  81.5460 0002532 114.5705 128.5770  1.00268780 74385
ASTRA 3A                
1 27400U 02015B   21280.07303108 -.00000201  00000-0  00000+0 0  9999
2 27400   6.8723  60.7509 0000897 131.9735 122.7431  1.00273062 71538
NSS-7                   
1 27414U 02019A   21279.80785583 -.00000155  00000-0  00000-0 0  9997
2 27414   5.3097  73.2960 0002240 132.4410  80.7859  1.00272604 71371
NSS-6                   
1 27603U 02057A   21279.77802723  .00000108  00000-0  00000-0 0  9998
2 27603   0.9702  94.4290 0003281 102.4709 289.4130  1.00275036 68851
AMC-11 (GE-11)          
1 28252U 04017A   21279.60052458  .00000068  00000-0  00000-0 0  9996
2 28252   0.0454  58.8221 0002606 138.9962 262.8671  1.00272183 63692
AMC-15                  
1 28446U 04041A   21279.62218066 -.00000090  00000-0  00000-0 0  9995
2 28446   0.0478  55.6810 0002586 143.0015 295.7751  1.00271378 62132
NSS-10 (AMC-12)         
1 28526U 05003A   21280.01969904 -.00000250  00000-0  00000+0 0  9999
2 28526   2.1573  89.9194 0002779  97.9256 157.7202  1.00271733 61135
ASTRA 1KR               
1 29055U 06012A   21279.88748601  .00000119  00000-0  00000-0 0  9994
2 29055   0.0100 202.8062 0005210  12.9953 138.7042  1.00274595 28537
AMC-18                  
1 29644U 06054B   21279.86707698 -.00000217  00000-0  00000-0 0  9993
2 29644   0.0411  80.4952 0002505 120.2143  44.1991  1.00270612 54361
ASTRA 1L                
1 31306U 07016A   21279.88748601  .00000119  00000-0  00000-0 0  9991
2 31306   0.0525 355.8663 0003408 246.9087 111.7041  1.00274116 27831
ASTRA 4A (SIRIUS 4)     
1 32299U 07057A   21280.06854830  .00000031  00000-0  00000+0 0  9994
2 32299   0.0487  71.9696 0002602 119.4807 214.0008  1.00270514 50778
AMC-21                  
1 33275U 08038B   21279.71514293  .00000035  00000-0  00000-0 0  9990
2 33275   0.0450  67.2240 0002481 132.6111 308.3366  1.00270615 48308
ASTRA 1M                
1 33436U 08057A   21279.88748601  .00000119  00000-0  00000-0 0  9993
2 33436   0.0369 113.5765 0004691  56.1686 184.7473  1.00274555 28530
CIEL-2                  
1 33453U 08063A   21280.00148014  .00000057  00000-0  00000+0 0  9997
2 33453   0.0262 138.5219 0003191  76.2271  32.8343  1.00272601 46943
NSS-9                   
1 33749U 09008A   21280.06365699  .00000071  00000-0  00000+0 0  9997
2 33749   0.0501  70.5349 0001975 127.5248  23.8708  1.00271777 46373
